OBJECT_NAME,OBJECT_ID,EPOCH,MEAN_MOTION,ECCENTRICITY,INCLINATION,RA_OF_ASC_NODE,ARG_OF_PERICENTER,MEAN_ANOMALY,EPHEMERIS_TYPE,CLASSIFICATION_TYPE,NORAD_CAT_ID,ELEMENT_SET_NO,REV_AT_EPOCH,BSTAR,MEAN_MOTION_DOT,MEAN_MOTION_DDOT
VICTUS HAZE PUMA,2026-142A,2026-06-24T07:43:27.204960,15.20697073,.00212132,97.4482,72.8649,302.5100,57.4085,0,U,69646,999,75,.16349016E-3,.3543E-4,0
ELECTRON R/B,2026-142B,2026-06-24T06:58:31.113696,16.02841226,.01509649,97.4349,73.2045,230.3317,128.4568,0,U,69647,999,78,.80609154E-3,.2155966E-1,.2342538E-5
TJS-26A,2026-144A,2026-06-23T07:54:55.514880,2.27958502,.73145613,19.5157,324.7456,179.7910,181.1077,0,U,69674,999,2,.31526459E-3,.963E-4,-.166614E-6
CZ-7A R/B,2026-144B,2026-06-23T07:47:14.132832,2.38779558,.7251415,19.5055,324.8183,178.8563,185.1182,0,U,69675,999,2,.12531E-3,.84894E-3,-.16321E-6
